ONEWEB-0326             
1 49195U 21083K   24058.74662853  .00000128  00000+0  29296-3 0  9993
2 49195  87.9225 142.7377 0002252 120.2389 239.8967 13.18685917119239
ONEWEB-0327             
1 49196U 21083L   24058.79642792 -.00000294  00000+0 -77744-3 0  9996
2 49196  87.9220 142.7395 0002576 113.4917 246.6486 13.18682294119265
ONEWEB-0328             
1 49197U 21083M   24058.90637092 -.00000439  00000+0 -12359-2 0  9998
2 49197  87.8964 127.5129 0001894 107.8719 252.2617 13.13470025120594
ONEWEB-0331             
1 49198U 21083N   24058.74031176  .00000053  00000+0  10274-3 0  9997
2 49198  87.9227 142.7313 0001937 111.7632 248.3706 13.18686191119241
ONEWEB-0333             
1 49199U 21083P   24058.90161606 -.00000197  00000+0 -57361-3 0  9997
2 49199  87.8977 127.5283 0002021  97.7846 262.3512 13.13469682120607
ONEWEB-0334             
1 49200U 21083Q   24058.81665612 -.00000092  00000+0 -25878-3 0  9998
2 49200  87.9121  81.7403 0002552  76.8200 283.3218 13.20771362125866
ONEWEB-0335             
1 49201U 21083R   24058.89686543 -.00000135  00000+0 -40439-3 0  9991
2 49201  87.8976 127.5178 0001818 104.7431 255.3899 13.13472044120612
ONEWEB-0336             
1 49202U 21083S   24058.71435814  .00000346  00000+0  91356-3 0  9992
2 49202  87.8974 127.5515 0002115 100.6125 259.5242 13.13471758120587
ONEWEB-0337             
1 49203U 21083T   24058.87609479  .00000357  00000+0  94135-3 0  9990
2 49203  87.8974 127.5181 0001817 105.7635 254.3694 13.13470086120607
ONEWEB-0338             
1 49204U 21083U   24058.82297193  .00000001  00000+0 -28540-4 0  9997
2 49204  87.9127  81.7162 0001925  78.1080 282.0269 13.20771744125880
ONEWEB-0339             
1 49205U 21083V   24058.88732579  .00000116  00000+0  28288-3 0  9990
2 49205  87.8973 127.5131 0001783 103.5321 256.6007 13.13471286120586
ONEWEB-0340             
1 49206U 21083W   24058.72607861  .00000067  00000+0  13666-3 0  9998
2 49206  87.9229 142.7279 0001909 109.9260 250.2078 13.18686768119209
ONEWEB-0341             
1 49207U 21083X   24058.73397760  .00000054  00000+0  10492-3 0  9994
2 49207  87.9226 142.7416 0001146 113.1876 246.9377 13.18682976119226
ONEWEB-0342             
1 49208U 21083Y   24058.75352697  .00000035  00000+0  54156-4 0  9992
2 49208  87.9118  81.7496 0001967  85.5714 274.5644 13.20771729125848
ONEWEB-0343             
1 49209U 21083Z   24058.72924384  .00000075  00000+0  15723-3 0  9998
2 49209  87.9221 142.7562 0001233 103.9372 256.1898 13.18688056119271
ONEWEB-0344             
1 49210U 21083AA  24058.93017397  .00000108  00000+0  26077-3 0  9991
2 49210  87.8975 127.5184 0002003 110.2521 249.8824 13.13472053120590
ONEWEB-0345             
1 49211U 21083AB  24058.71910854  .00000383  00000+0  10143-2 0  9999
2 49211  87.8973 127.5390 0001678 119.4687 240.6610 13.13468282120578
ONEWEB-0346             
1 49212U 21083AC  24058.73871850  .00000084  00000+0  17959-3 0  9995
2 49212  87.9227 142.7492 0002175 116.7471 243.3884 13.18687042119212
ONEWEB-0348             
1 49213U 21083AD  24058.81981413  .00000014  00000+0  13140-5 0  9995
2 49213  87.9128  81.6981 0001779 115.5393 244.5924 13.20771676125884
ONEWEB-0350             
1 49214U 21083AE  24058.88098116  .00000267  00000+0  69585-3 0  9994
2 49214  87.8973 127.4983 0001717 113.8285 246.3025 13.13471278120622
ONEWEB-0351             
1 49215U 21083AF  24058.81350266 -.00000050  00000+0 -15488-3 0  9990
2 49215  87.9124  81.7033 0001818  80.1132 280.0207 13.20771451125849
ONEWEB-0352             
1 49216U 21083AG  24058.93811509  .00000267  00000+0  69556-3 0  9999
2 49216  87.8975 127.5144 0001876  95.4216 264.7127 13.13472647120720
ONEWEB-0354             
1 49217U 21083AH  24058.76299749  .00000103  00000+0  22167-3 0  9993
2 49217  87.9126  81.6945 0001566  94.9828 265.1484 13.20771042125879
ONEWEB-0355             
1 49218U 21083AJ  24058.89209266  .00000041  00000+0  76508-4 0  9993
2 49218  87.8974 127.5232 0001781 100.6277 259.5053 13.13467956120592
ONEWEB-0357             
1 49219U 21083AK  24058.75983903  .00000090  00000+0  18903-3 0  9994
2 49219  87.9124  81.7171 0001840  94.9264 265.2079 13.20770963125872
ONEWEB-0332             
1 49279U 21090A   24058.80217827  .00000085  00000+0  19567-3 0  9990
2 49279  87.8911  96.9915 0002191  87.9279 272.2102 13.14501919117178
ONEWEB-0347             
1 49280U 21090B   24058.82612654  .00000032  00000+0  45722-4 0  9996
2 49280  87.9127  81.6999 0002300  83.2571 276.8824 13.20771109120115
ONEWEB-0349             
1 49281U 21090C   24058.78193368  .00000103  00000+0  22077-3 0  9994
2 49281  87.9129  81.7065 0001741 100.6137 259.5192 13.20771943118897
ONEWEB-0353             
1 49282U 21090D   24058.79424212  .00000155  00000+0  38246-3 0  9993
2 49282  87.8911  96.9773 0002154  88.4500 271.6876 13.14500412117174
ONEWEB-0356             
1 49283U 21090E   24058.78035585  .00000083  00000+0  17101-3 0  9991
2 49283  87.9127  81.7026 0002698 107.4564 252.6865 13.20771179118897
ONEWEB-0358             
1 49284U 21090F   24058.81034540 -.00000063  00000+0 -18710-3 0  9993
2 49284  87.9128  81.6819 0001942 103.2548 256.8802 13.20771418119620
ONEWEB-0359             
1 49285U 21090G   24058.80717673 -.00000012  00000+0 -61076-4 0  9996
2 49285  87.9127  81.7027 0001467 100.4714 259.6585 13.20775222119602
ONEWEB-0360             
1 49286U 21090H   24058.79772033  .00000036  00000+0  55626-4 0  9994
2 49286  87.9126  81.7090 0001796  93.2658 266.8681 13.20771480118915
ONEWEB-0361             
1 49287U 21090J   24058.77878410  .00000092  00000+0  19519-3 0  9991
2 49287  87.9127  81.7070 0002052  94.8746 265.2622 13.20771205119369
ONEWEB-0362             
1 49288U 21090K   24058.89971421  .00000008  00000+0 -13518-4 0  9993
2 49288  87.9147 112.2584 0001693  90.1210 270.0117 13.19725311116081
ONEWEB-0363             
1 49289U 21090L   24058.79456531  .00000037  00000+0  59857-4 0  9990
2 49289  87.9126  81.6991 0002187 103.4086 256.7291 13.20771558119373
ONEWEB-0364             
1 49290U 21090M   24058.75668523  .00000030  00000+0  42359-4 0  9996
2 49290  87.9129  81.7302 0002100  88.5931 271.5443 13.20771408120507
ONEWEB-0365             
1 49291U 21090N   24058.90919324 -.00000002  00000+0 -36642-4 0  9991
2 49291  87.9136 112.2442 0001931  94.3969 265.7385 13.19725303115592
ONEWEB-0366             
1 49292U 21090P   24058.86718975  .00000256  00000+0  65553-3 0  9997
2 49292  87.8911  96.9709 0002131  93.5939 266.5434 13.14500803117168
ONEWEB-0367             
1 49293U 21090Q   24058.79298498  .00000108  00000+0  23315-3 0  9999
2 49293  87.9127  81.6937 0002175  88.4490 271.6892 13.20771551118899
ONEWEB-0368             
1 49294U 21090R   24058.76615589  .00000111  00000+0  24179-3 0  9994
2 49294  87.9129  81.7283 0002836  91.8291 268.3167 13.20771651120047
ONEWEB-0369             
1 49295U 21090S   24058.90445342 -.00000034  00000+0 -11606-3 0  9996
2 49295  87.9145 112.2405 0002069  93.6138 266.5231 13.19725197115587
ONEWEB-0370             
1 49296U 21090T   24058.95396994  .00000010  00000+0 -71354-5 0  9991
2 49296  87.9127  81.6657 0001965  93.5510 266.5848 13.20771291118959
ONEWEB-0371             
1 49297U 21090U   24058.83652780  .00000087  00000+0  18423-3 0  9996
2 49297  87.9147 112.2439 0001917  94.0819 266.0533 13.19726403115615
ONEWEB-0372             
1 49298U 21090V   24058.56400021  .00000091  00000+0  19259-3 0  9999
2 49298  87.9128  81.7514 0001982  87.1847 272.9513 13.20771943118871
ONEWEB-0373             
1 49299U 21090W   24058.81823781 -.00000038  00000+0 -12605-3 0  9991
2 49299  87.9126  81.7183 0002309  94.3801 265.7596 13.20771703120098
ONEWEB-0374             
1 49300U 21090X   24058.85450486  .00000232  00000+0  59183-3 0  9992
2 49300  87.8909  96.9598 0002117  95.6343 264.5028 13.14501874117163
ONEWEB-0375             
1 49301U 21090Y   24058.95712383 -.00000029  00000+0 -10292-3 0  9995
2 49301  87.9126  81.6660 0002294 111.1285 249.0094 13.20771782119619
ONEWEB-0376             
1 49302U 21090Z   24058.91076495  .00000035  00000+0  54007-4 0  9997
2 49302  87.9139 112.2448 0002043  89.5342 270.6025 13.19726488115625
ONEWEB-0377             
1 49303U 21090AA  24058.79154652  .00000044  00000+0  76224-4 0  9991
2 49303  87.9127  81.6904 0001688  97.4232 262.7093 13.20770785119586
ONEWEB-0378             
1 49304U 21090AB  24058.76695281  .00000078  00000+0  16042-3 0  9995
2 49304  87.9129  81.7099 0002248  94.7621 265.3769 13.20773150118846
ONEWEB-0379             
1 49305U 21090AC  24058.84974260  .00000184  00000+0  46116-3 0  9995
2 49305  87.8910  96.9629 0002072  95.3153 264.8213 13.14504230117169
ONEWEB-0380             
1 49306U 21090AD  24058.90760530  .00000005  00000+0 -19295-4 0  9998
2 49306  87.9146 112.2429 0001894 100.0467 260.0880 13.19726240115590
ONEWEB-0381             
1 49307U 21090AE  24058.86401042  .00000060  00000+0  11456-3 0  9994
2 49307  87.9129  81.6823 0001861  95.0397 265.0949 13.20771328118906
ONEWEB-0382             
1 49308U 21090AF  24058.77562805  .00000150  00000+0  33791-3 0  9996
2 49308  87.9126  81.6977 0002365 101.4675 258.6724 13.20771683118885
ONEWEB-0383             
1 49309U 21090AG  24058.84339871  .00000098  00000+0  22994-3 0  9994
2 49309  87.8908  96.9549 0002252  96.7203 263.4183 13.14503837117198
ONEWEB-0384             
1 49310U 21090AH  24058.77246949  .00000149  00000+0  33426-3 0  9990
2 49310  87.9127  81.7080 0002425 103.2700 256.8704 13.20771421118890
ONEWEB-0385             
1 49311U 21090AJ  24058.76773329  .00000125  00000+0  27551-3 0  9993
2 49311  87.9129  81.7107 0002178 101.9199 258.2179 13.20771419118861
ONEWEB-0386             
1 49312U 21090AK  24058.78509381  .00000113  00000+0  24585-3 0  9992
2 49312  87.9122  81.7093 0002226  97.2339 262.9047 13.20770635118883
